STARLINK-31045          
1 58541U 23192L   24023.91667824 -.01632991  00000+0 -27854-1 0  9993
2 58541  53.1599  57.2863 0000996 104.5769 294.0515 15.53766641  8529
STARLINK-31030          
1 58542U 23192M   24023.43326706 -.00015123  00000+0 -53466-3 0  9993
2 58542  53.1609  66.5025 0001871  77.5517 282.5692 15.28004741  8355
STARLINK-31049          
1 58543U 23192N   24023.29779357  .00002247  00000+0  93760-4 0  9995
2 58543  53.1605  67.0758 0001446  95.4786 264.6379 15.28018094  7141
STARLINK-31048          
1 58544U 23192P   24023.42405686  .00005994  00000+0  22881-3 0  9999
2 58544  53.1595  64.9845 0001426  89.3610 270.7553 15.28034108  8382
STARLINK-31057          
1 58545U 23192Q   24023.42392004  .00011030  00000+0  40990-3 0  9998
2 58545  53.1591  66.4449 0001606 100.0396 260.0785 15.28050410  8369
STARLINK-31050          
1 58546U 23192R   24023.35380950  .00005662  00000+0  21675-3 0  9991
2 58546  53.1614  66.7128 0002058 136.1137 224.0027 15.28049854  8288
STARLINK-31063          
1 58547U 23192S   24023.37659271  .00000595  00000+0  34131-4 0  9991
2 58547  53.1617  64.6844 0001609  89.2019 270.9165 15.28026574  8166
STARLINK-31016          
1 58548U 23192T   24023.34929012  .00000737  00000+0  39270-4 0  9999
2 58548  53.1603  65.2330 0001762 114.1804 245.9380 15.28022432  8361
STARLINK-31053          
1 58549U 23192U   24023.41453621  .00002859  00000+0  11569-3 0  9993
2 58549  53.1603  66.3814 0001849 109.9263 250.1936 15.28064655  8355
STARLINK-31056          
1 58550U 23192V   24023.40511265  .00018056  00000+0  66204-3 0  9995
2 58550  53.1595  65.6187 0001723 105.7358 254.3832 15.28064722  8370
STARLINK-30999          
1 58551U 23192W   24023.91667824 -.01607709  00000+0 -21470-1 0  9991
2 58551  53.1599  55.7034 0000914 100.1023 358.4922 15.60720106  8495
STARLINK-31046          
1 58552U 23192X   24023.40050289  .00005536  00000+0  21220-3 0  9999
2 58552  53.1587  66.2965 0002673 114.4915 245.6364 15.28053166  8356
STARLINK-31044          
1 58589U 23200A   24023.59094586  .00004285  00000+0  17354-3 0  9990
2 58589  43.0006  75.4604 0000592 307.0298  53.0499 15.25912359  6773
STARLINK-31062          
1 58590U 23200B   24023.24343310  .00001305  00000+0  59731-4 0  9992
2 58590  42.9985  78.0218 0001432 230.7799 129.2925 15.25901069  6698
STARLINK-31043          
1 58591U 23200C   24023.24117562  .00000226  00000+0  18490-4 0  9999
2 58591  42.9991  78.0046 0001375 229.0997 130.9735 15.25900787  6696
STARLINK-31096          
1 58592U 23200D   24023.63164403  .00004768  00000+0  19191-3 0  9992
2 58592  42.9987  75.7756 0001695 234.0125 126.0569 15.25928274  6780
STARLINK-31094          
1 58593U 23200E   24023.23663532  .00001941  00000+0  83990-4 0  9995
2 58593  43.0002  77.9674 0001890 235.1074 124.9600 15.25923765  6699
STARLINK-31075          
1 58594U 23200F   24023.62712036  .00006810  00000+0  26975-3 0  9992
2 58594  42.9996  75.7399 0002547 224.0077 136.0571 15.25932786  6784
STARLINK-30857          
1 58595U 23200G   24023.22985257  .00087103  00000+0  32984-2 0  9996
2 58595  43.0001  77.9198 0002868 225.6524 134.4092 15.25928809  6696
STARLINK-31059          
1 58596U 23200H   24023.44178433  .00058418  00000+0  10832-2 0  9996
2 58596  43.0013  74.3255 0000734   3.4527 356.6337 15.48143500  6782
STARLINK-31087          
1 58597U 23200J   24023.61808319  .00017040  00000+0  65914-3 0  9997
2 58597  43.0006  75.6726 0001428  28.9995 331.0935 15.25939848  6654
STARLINK-31079          
1 58598U 23200K   24023.61581827  .00007553  00000+0  29812-3 0  9995
2 58598  43.0002  75.6560 0000971 258.4510 101.6232 15.25929151  6783
STARLINK-31072          
1 58599U 23200L   24023.62471396  .00014834  00000+0  57541-3 0  9996
2 58599  42.9990  74.8305 0000927 269.5137  90.5608 15.25930731  6784
STARLINK-31052          
1 58600U 23200M   24022.63169024  .00002759  00000+0  11528-3 0  9999
2 58600  43.0020  81.1686 0001238 271.8279  88.2430 15.25911375  6606
STARLINK-31074          
1 58601U 23200N   24023.61129390  .00002653  00000+0  11120-3 0  9992
2 58601  43.0020  75.6199 0002017 243.4155 116.6489 15.25916195  6771
STARLINK-31071          
1 58602U 23200P   24023.41544492  .00064953  00000+0  11094-2 0  9995
2 58602  43.0013  73.2219 0000956 292.5912  67.4847 15.50437390  6670
STARLINK-31080          
1 58603U 23200Q   24023.60901951  .00009264  00000+0  36319-3 0  9996
2 58603  43.0015  75.6018 0001367 252.4427 107.6275 15.25942803  6493
STARLINK-31088          
1 58604U 23200R   24023.58188522 -.00001292  00000+0 -39542-4 0  9992
2 58604  42.9991  75.3830 0000885 251.1697 108.9058 15.25915502  6773
STARLINK-31038          
1 58605U 23200S   24023.60223921  .00008018  00000+0  31579-3 0  9991
2 58605  43.0022  75.5498 0001132 282.7392  77.3332 15.25934409  6772
STARLINK-31082          
1 58606U 23200T   24023.60451095  .00004335  00000+0  17542-3 0  9999
2 58606  43.0016  75.5677 0000682 317.2102  42.8696 15.25919821  6778
STARLINK-31069          
1 58607U 23200U   24023.59998931  .00003468  00000+0  14236-3 0  9996
2 58607  43.0015  75.5326 0001277 262.6106  97.4600 15.25909279  6774
STARLINK-31067          
1 58608U 23200V   24023.59772157  .00087822  00000+0  33188-2 0  9999
2 58608  43.0016  75.5146 0002360 230.9014 129.1628 15.25993575  6771
STARLINK-31085          
1 58609U 23200W   24023.59545877  .00002067  00000+0  88786-4 0  9991
2 58609  43.0015  75.4965 0001348 239.3137 120.7581 15.25926747  6786
STARLINK-31089          
1 58610U 23200X   24022.60666234  .00003040  00000+0  12600-3 0  9998
2 58610  42.9998  80.0725 0001089 269.3301  90.7425 15.25914902  6615
STARLINK-31061          
1 58611U 23200Y   24022.61130734  .00021460  00000+0  82628-3 0  9994
2 58611  43.0008  81.0075 0001330 284.1263  75.9440 15.25972843  6609
STARLINK-31054          
1 58619U 23203B   24023.25001157  .00020537  00000+0  79384-3 0  9991
2 58619  43.0006 126.6853 0000777 279.5650 205.3837 15.25864352  6094
STARLINK-31118          
1 58620U 23203C   24023.58334491 -.00076636  00000+0 -29505-2 0  9991
2 58620  43.0003 124.7808 0001572 290.7553 239.8035 15.25907722  6162
STARLINK-31134          
1 58621U 23203D   24023.91667824  .00057833  00000+0  22075-2 0  9999
2 58621  43.0011 122.7795 0001493 303.2740 310.3079 15.25848027  6159
STARLINK-31133          
1 58622U 23203E   24023.58334491 -.00117346  00000+0 -45445-2 0  9998
2 58622  43.0005 124.7504 0001567 308.0526 234.9594 15.25933695  4922
STARLINK-31068          
1 58623U 23203F   24023.83334491  .00081159  00000+0  30861-2 0  9993
2 58623  43.0006 123.3111 0002277 276.1812 214.1984 15.25825824  6148
STARLINK-31129          
1 58624U 23203G   24023.91667824  .00067084  00000+0  25567-2 0  9990
2 58624  43.0009 122.8105 0001612 285.7185 315.3864 15.25836884  6150
STARLINK-30774          
1 58625U 23203H   24023.91667824  .00036415  00000+0  13973-2 0  9993
2 58625  43.0014 122.7185 0001619 255.3670  23.1134 15.25856526  6219
STARLINK-31086          
1 58626U 23203J   24022.72509266 -.00073408  00000+0 -19485-2 0  9996
2 58626  43.0016 129.0603 0001648 312.8448  47.2269 15.37730921  4803
STARLINK-31065          
1 58627U 23203K   24023.00001157  .00058474  00000+0  15923-2 0  9992
2 58627  43.0007 127.5200 0000864 295.5061 131.8964 15.36682075  6064
STARLINK-31092          
1 58628U 23203L   24023.91667824  .00007820  00000+0  30867-3 0  9996
2 58628  43.0007 122.6884 0002565 236.7501  54.1584 15.25886377  6159
STARLINK-31091          
1 58629U 23203M   24023.91667824 -.00053434  00000+0 -20455-2 0  9992
2 58629  43.0010 122.6278 0001370 273.8743  41.8908 15.25945264  6046
STARLINK-31084          
1 58630U 23203N   24023.25001157  .00019754  00000+0  76343-3 0  9995
2 58630  43.0007 126.3524 0000741  25.5603 236.1796 15.25889930  6093
STARLINK-31064          
1 58631U 23203P   24023.91667824 -.00151778  00000+0 -58919-2 0  9991
2 58631  43.0007 122.5367 0001022 238.6658 114.3318 15.26026576  6151
STARLINK-31081          
1 58632U 23203Q   24023.91667824 -.00053145  00000+0 -20346-2 0  9994
2 58632  43.0005 122.5068 0000969 262.1760 103.3169 15.25941218  6153
STARLINK-31022          
1 58633U 23203R   24023.58334491 -.00037481  00000+0 -14293-2 0  9998
2 58633  43.0007 124.4470 0001241 259.6967  47.6819 15.25932479  6159
STARLINK-31025          
1 58634U 23203S   24022.77131816  .00008175  00000+0  15365-3 0  9993
2 58634  42.9993 126.7617 0001753 270.5392  89.5267 15.48922938  6068
STARLINK-31018          
1 58635U 23203T   24023.91667824 -.00064650  00000+0 -24860-2 0  9995
2 58635  43.0000 123.0789 0001291 268.2581 221.0250 15.25874414  6213
STARLINK-31008          
1 58636U 23203U   24023.91667824  .00068978  00000+0  26271-2 0  9999
2 58636  42.9998 123.1093 0001642 284.9124 191.7672 15.25847082  6217
STARLINK-31077          
1 58637U 23203V   24023.25001157  .00004177  00000+0  16971-3 0  9996
2 58637  42.9998 126.8045 0001449 262.5726 172.6644 15.25856355  5950
STARLINK-31078          
1 58638U 23203W   24023.42822227 -.00140209  00000+0 -52716-2 0  9990
2 58638  43.0005 125.7424 0003953 253.4572 106.5845 15.27012051  6130
STARLINK-31070          
1 58639U 23203X   24023.91667824  .00068163  00000+0  25978-2 0  9991
2 58639  43.0008 122.9599 0001403 285.1133 253.7866 15.25830129  6218
STARLINK-31090          
1 58640U 23203Y   24022.33138054  .00046374  00000+0  78005-3 0  9996
2 58640  42.9985 130.3869 0000213  55.6767 304.4113 15.50993226  4769
STARLINK-31113          
1 58668U 23211B   24023.58334491 -.02205389  00000+0 -76062-1 0  9992
2 58668  42.9997 141.3725 0001156 263.9703 327.2456 15.32830683  5127
STARLINK-31128          
1 58669U 23211C   24023.58334491 -.02208616  00000+0 -64349-1 0  9994
2 58669  42.9998 141.2244 0001489 264.5270  28.1829 15.38048884  4916
